[{"OBJECT_NAME":"FENGYUN 3C","OBJECT_ID":"2013-052A","EPOCH":"2026-03-09T23:00:17.582976","MEAN_MOTION":14.15729116,"ECCENTRICITY":0.00138136,"INCLINATION":98.4893,"RA_OF_ASC_NODE":47.4396,"ARG_OF_PERICENTER":312.3692,"MEAN_ANOMALY":47.6312,"EPHEMERIS_TYPE":0,"CLASSIFICATION_TYPE":"U","NORAD_CAT_ID":39260,"ELEMENT_SET_NO":999,"REV_AT_EPOCH":64452,"BSTAR":0.00010509622,"MEAN_MOTION_DOT":1.65e-6,"MEAN_MOTION_DDOT":0},{"OBJECT_NAME":"CZ-6A DEB","OBJECT_ID":"2024-140WC","EPOCH":"2026-03-09T15:08:30.456384","MEAN_MOTION":14.26224419,"ECCENTRICITY":0.00391,"INCLINATION":89.0673,"RA_OF_ASC_NODE":290.0417,"ARG_OF_PERICENTER":80.4444,"MEAN_ANOMALY":280.1165,"EPHEMERIS_TYPE":0,"CLASSIFICATION_TYPE":"U","NORAD_CAT_ID":61363,"ELEMENT_SET_NO":999,"REV_AT_EPOCH":7863,"BSTAR":0.00061307,"MEAN_MOTION_DOT":1.495e-5,"MEAN_MOTION_DDOT":0}]
